ONEWEB-0300             
1 49089U 21075Q   25308.28055223 -.00000518  00000+0 -14748-2 0  9991
2 49089  87.8977  35.3298 0001606 112.2122 247.9177 13.12443438205706
ONEWEB-0301             
1 49090U 21075R   25308.18810362 -.00000253  00000+0 -73993-3 0  9999
2 49090  87.8976  35.3509 0001602 116.2430 243.8864 13.12443730205055
ONEWEB-0302             
1 49091U 21075S   25308.48007625  .00000190  00000+0  49405-3 0  9992
2 49091  87.8979  35.3008 0001960  93.1231 267.0121 13.12440269205072
ONEWEB-0304             
1 49092U 21075T   25308.54915702  .00000088  00000+0  19249-3 0  9993
2 49092  87.9135  50.5319 0001652  96.6571 263.4749 13.17650611203999
ONEWEB-0305             
1 49093U 21075U   25308.54240130  .00000051  00000+0  99202-4 0  9998
2 49093  87.9137  50.5101 0001520  89.4951 270.6355 13.17651315204027
ONEWEB-0308             
1 49094U 21075V   25308.16864155  .00000338  00000+0  90506-3 0  9991
2 49094  87.8980  35.3551 0001787 102.4225 257.7104 13.12440857205041
ONEWEB-0309             
1 49095U 21075W   25308.31797613  .00000030  00000+0  45261-4 0  9991
2 49095  87.9133  50.5709 0002045  92.0003 268.1362 13.17649511203967
ONEWEB-0310             
1 49096U 21075X   25308.18324058 -.00000064  00000+0 -21428-3 0  9993
2 49096  87.8967  35.3923 0001825  98.8440 261.2895 13.12442002205671
